[{"OBJECT_NAME":"JILIN-1 GAOFEN 3A","OBJECT_ID":"2019-032C","EPOCH":"2026-03-09T17:53:24.364896","MEAN_MOTION":15.3027131,"ECCENTRICITY":0.00026181,"INCLINATION":44.9746,"RA_OF_ASC_NODE":183.2861,"ARG_OF_PERICENTER":111.29,"MEAN_ANOMALY":248.8263,"EPHEMERIS_TYPE":0,"CLASSIFICATION_TYPE":"U","NORAD_CAT_ID":44312,"ELEMENT_SET_NO":999,"REV_AT_EPOCH":37259,"BSTAR":0.00055381133,"MEAN_MOTION_DOT":0.00016264,"MEAN_MOTION_DDOT":0},{"OBJECT_NAME":"STARLINK-33785","OBJECT_ID":"2025-071Z","EPOCH":"2026-03-09T11:26:15.011232","MEAN_MOTION":15.30190164,"ECCENTRICITY":0.00011574,"INCLINATION":53.1578,"RA_OF_ASC_NODE":141.1297,"ARG_OF_PERICENTER":97.0782,"MEAN_ANOMALY":263.0351,"EPHEMERIS_TYPE":0,"CLASSIFICATION_TYPE":"U","NORAD_CAT_ID":63516,"ELEMENT_SET_NO":999,"REV_AT_EPOCH":5271,"BSTAR":0.00048480911,"MEAN_MOTION_DOT":0.00014022,"MEAN_MOTION_DDOT":0}]
